{
  "type": "FeatureCollection",
  "features": [
    {
      "type": "Feature",
      "properties": {
        "norad_id": 30860,
        "name": "FENGYUN 1C DEB",
        "group": "fengyun-1c-debris",
        "lat": 36.31696797256244,
        "lon": -103.60889068480851,
        "alt_km": 776.5130102825642,
        "timestamp": "2025-12-22T04:03:39.448364+00:00",
        "meta_object_name": "FENGYUN 1C DEB",
        "meta_object_id": "1999-025AWW",
        "meta_epoch": "2025-12-21T10:32:49.077024",
        "meta_mean_motion": 14.25554906,
        "meta_eccentricity": 0.00402752,
        "meta_inclination": 98.9049,
        "meta_ra_of_asc_node": 69.0328,
        "meta_arg_of_pericenter": 163.3369,
        "meta_mean_anomaly": 196.9144,
        "meta_ephemeris_type": 0,
        "meta_classification_type": "U",
        "meta_norad_cat_id": 30860,
        "meta_element_set_no": 999,
        "meta_rev_at_epoch": 96640,
        "meta_bstar": 0.0012048538,
        "meta_mean_motion_dot": 2.83e-05,
        "meta_mean_motion_ddot": 0,
        "tle_line1": "1 30860U 99025AWW 25355.43945691  .00002830  00000+0  12049-2 0  9993",
        "tle_line2": "2 30860  98.9049  69.0328 0040275 163.3369 196.9144 14.25554906966405"
      },
      "geometry": {
        "type": "Point",
        "coordinates": [
          -103.60889068480851,
          36.31696797256244
        ]
      }
    },
    {
      "type": "Feature",
      "properties": {
        "norad_id": 30862,
        "name": "FENGYUN 1C DEB",
        "group": "fengyun-1c-debris",
        "lat": -2.3519233289966492,
        "lon": -92.95922879499842,
        "alt_km": 725.1245641140849,
        "timestamp": "2025-12-22T04:03:39.448374+00:00",
        "meta_object_name": "FENGYUN 1C DEB",
        "meta_object_id": "1999-025AWY",
        "meta_epoch": "2025-12-21T05:43:08.339808",
        "meta_mean_motion": 14.43230431,
        "meta_eccentricity": 0.0052107,
        "meta_inclination": 98.9568,
        "meta_ra_of_asc_node": 86.4337,
        "meta_arg_of_pericenter": 139.0646,
        "meta_mean_anomaly": 248.8173,
        "meta_ephemeris_type": 0,
        "meta_classification_type": "U",
        "meta_norad_cat_id": 30862,
        "meta_element_set_no": 999,
        "meta_rev_at_epoch": 96842,
        "meta_bstar": 0.0022042,
        "meta_mean_motion_dot": 7.497e-05,
        "meta_mean_motion_ddot": 0,
        "tle_line1": "1 30862U 99025AWY 25355.23829097  .00007497  00000+0  22042-2 0  9992",
        "tle_line2": "2 30862  98.9568  86.4337 0052107 139.0646 248.8173 14.43230431968428"
      },
      "geometry": {
        "type": "Point",
        "coordinates": [
          -92.95922879499842,
          -2.3519233289966492
        ]
      }
    },
    {
      "type": "Feature",
      "properties": {
        "norad_id": 30863,
        "name": "FENGYUN 1C DEB",
        "group": "fengyun-1c-debris",
        "lat": 58.05428166347483,
        "lon": 170.08212952853017,
        "alt_km": 2180.6086363445856,
        "timestamp": "2025-12-22T04:03:39.448384+00:00",
        "meta_object_name": "FENGYUN 1C DEB",
        "meta_object_id": "1999-025AWZ",
        "meta_epoch": "2025-12-21T07:26:52.161216",
        "meta_mean_motion": 12.40539027,
        "meta_eccentricity": 0.0877249,
        "meta_inclination": 99.1205,
        "meta_ra_of_asc_node": 184.3542,
        "meta_arg_of_pericenter": 232.3747,
        "meta_mean_anomaly": 314.6544,
        "meta_ephemeris_type": 0,
        "meta_classification_type": "U",
        "meta_norad_cat_id": 30863,
        "meta_element_set_no": 999,
        "meta_rev_at_epoch": 59846,
        "meta_bstar": 0.0027378,
        "meta_mean_motion_dot": 1.406e-05,
        "meta_mean_motion_ddot": 0,
        "tle_line1": "1 30863U 99025AWZ 25355.31032594  .00001406  00000+0  27378-2 0  9991",
        "tle_line2": "2 30863  99.1205 184.3542 0877249 232.3747 314.6544 12.40539027598462"
      },
      "geometry": {
        "type": "Point",
        "coordinates": [
          170.08212952853017,
          58.05428166347483
        ]
      }
    },
    {
      "type": "Feature",
      "properties": {
        "norad_id": 30867,
        "name": "FENGYUN 1C DEB",
        "group": "fengyun-1c-debris",
        "lat": -66.67776447058827,
        "lon": -79.18406911590968,
        "alt_km": 774.1167862750235,
        "timestamp": "2025-12-22T04:03:39.448398+00:00",
        "meta_object_name": "FENGYUN 1C DEB",
        "meta_object_id": "1999-025AXD",
        "meta_epoch": "2025-12-20T17:11:38.053824",
        "meta_mean_motion": 14.28078006,
        "meta_eccentricity": 0.00538965,
        "meta_inclination": 97.8775,
        "meta_ra_of_asc_node": 260.7732,
        "meta_arg_of_pericenter": 332.7008,
        "meta_mean_anomaly": 55.1129,
        "meta_ephemeris_type": 0,
        "meta_classification_type": "U",
        "meta_norad_cat_id": 30867,
        "meta_element_set_no": 999,
        "meta_rev_at_epoch": 96651,
        "meta_bstar": 0.001474724,
        "meta_mean_motion_dot": 3.685e-05,
        "meta_mean_motion_ddot": 0,
        "tle_line1": "1 30867U 99025AXD 25354.71641266  .00003685  00000+0  14747-2 0  9997",
        "tle_line2": "2 30867  97.8775 260.7732 0053896 332.7008  55.1129 14.28078006966516"
      },
      "geometry": {
        "type": "Point",
        "coordinates": [
          -79.18406911590968,
          -66.67776447058827
        ]
      }
    },
    {
      "type": "Feature",
      "properties": {
        "norad_id": 30868,
        "name": "FENGYUN 1C DEB",
        "group": "fengyun-1c-debris",
        "lat": -79.67399872968697,
        "lon": -73.63957500675778,
        "alt_km": 862.377776426395,
        "timestamp": "2025-12-22T04:03:39.448411+00:00",
        "meta_object_name": "FENGYUN 1C DEB",
        "meta_object_id": "1999-025AXE",
        "meta_epoch": "2025-12-21T14:59:24.719424",
        "meta_mean_motion": 14.11124378,
        "meta_eccentricity": 0.0135616,
        "meta_inclination": 98.2631,
        "meta_ra_of_asc_node": 232.9596,
        "meta_arg_of_pericenter": 187.2936,
        "meta_mean_anomaly": 202.2698,
        "meta_ephemeris_type": 0,
        "meta_classification_type": "U",
        "meta_norad_cat_id": 30868,
        "meta_element_set_no": 999,
        "meta_rev_at_epoch": 96836,
        "meta_bstar": 8.6219e-05,
        "meta_mean_motion_dot": 1.3e-06,
        "meta_mean_motion_ddot": 0,
        "tle_line1": "1 30868U 99025AXE 25355.62459166  .00000130  00000+0  86219-4 0  9992",
        "tle_line2": "2 30868  98.2631 232.9596 0135616 187.2936 202.2698 14.11124378968363"
      },
      "geometry": {
        "type": "Point",
        "coordinates": [
          -73.63957500675778,
          -79.67399872968697
        ]
      }
    },
    {
      "type": "Feature",
      "properties": {
        "norad_id": 30872,
        "name": "FENGYUN 1C DEB",
        "group": "fengyun-1c-debris",
        "lat": -35.797705917696334,
        "lon": 55.92148536794542,
        "alt_km": 743.3714966398866,
        "timestamp": "2025-12-22T04:03:39.448421+00:00",
        "meta_object_name": "FENGYUN 1C DEB",
        "meta_object_id": "1999-025AXJ",
        "meta_epoch": "2025-12-20T02:19:23.094048",
        "meta_mean_motion": 14.3945895,
        "meta_eccentricity": 0.00405296,
        "meta_inclination": 99.1926,
        "meta_ra_of_asc_node": 46.9941,
        "meta_arg_of_pericenter": 6.8734,
        "meta_mean_anomaly": 23.8694,
        "meta_ephemeris_type": 0,
        "meta_classification_type": "U",
        "meta_norad_cat_id": 30872,
        "meta_element_set_no": 999,
        "meta_rev_at_epoch": 97842,
        "meta_bstar": 0.00056969079,
        "meta_mean_motion_dot": 1.742e-05,
        "meta_mean_motion_ddot": 0,
        "tle_line1": "1 30872U 99025AXJ 25354.09679507  .00001742  00000+0  56969-3 0  9998",
        "tle_line2": "2 30872  99.1926  46.9941 0040529   6.8734  23.8694 14.39458950978429"
      },
      "geometry": {
        "type": "Point",
        "coordinates": [
          55.92148536794542,
          -35.797705917696334
        ]
      }
    },
    {
      "type": "Feature",
      "properties": {
        "norad_id": 30873,
        "name": "FENGYUN 1C DEB",
        "group": "fengyun-1c-debris",
        "lat": -75.77527137450124,
        "lon": 32.92543611383387,
        "alt_km": 762.5470998965684,
        "timestamp": "2025-12-22T04:03:39.448431+00:00",
        "meta_object_name": "FENGYUN 1C DEB",
        "meta_object_id": "1999-025AXK",
        "meta_epoch": "2025-12-21T06:25:47.080128",
        "meta_mean_motion": 14.19145479,
        "meta_eccentricity": 0.0107684,
        "meta_inclination": 98.6117,
        "meta_ra_of_asc_node": 355.337,
        "meta_arg_of_pericenter": 263.9159,
        "meta_mean_anomaly": 94.9738,
        "meta_ephemeris_type": 0,
        "meta_classification_type": "U",
        "meta_norad_cat_id": 30873,
        "meta_element_set_no": 999,
        "meta_rev_at_epoch": 97313,
        "meta_bstar": 0.00016633,
        "meta_mean_motion_dot": 3.25e-06,
        "meta_mean_motion_ddot": 0,
        "tle_line1": "1 30873U 99025AXK 25355.26790602  .00000325  00000+0  16633-3 0  9999",
        "tle_line2": "2 30873  98.6117 355.3370 0107684 263.9159  94.9738 14.19145479973130"
      },
      "geometry": {
        "type": "Point",
        "coordinates": [
          32.92543611383387,
          -75.77527137450124
        ]
      }
    }
  ]
}